{
  "type": "FeatureCollection",
  "features": [
    {
      "type": "Feature",
      "properties": {
        "norad_id": 37836,
        "name": "EUTELSAT 16A",
        "group": "eutelsat",
        "lat": 0.07336299838232983,
        "lon": 78.43904092681146,
        "alt_km": 35811.223083944504,
        "timestamp": "2025-12-12T22:42:12.221348+00:00",
        "meta_object_name": "EUTELSAT 16A",
        "meta_object_id": "2011-057A",
        "meta_epoch": "2025-12-12T06:42:27.574848",
        "meta_mean_motion": 1.00272138,
        "meta_eccentricity": 0.00060253,
        "meta_inclination": 0.0595,
        "meta_ra_of_asc_node": 8.9324,
        "meta_arg_of_pericenter": 256.4416,
        "meta_mean_anomaly": 292.4691,
        "meta_ephemeris_type": 0,
        "meta_classification_type": "U",
        "meta_norad_cat_id": 37836,
        "meta_element_set_no": 999,
        "meta_rev_at_epoch": 545,
        "meta_bstar": 0,
        "meta_mean_motion_dot": 1.14e-06,
        "meta_mean_motion_ddot": 0,
        "tle_line1": "1 37836U 11057A   25346.27948582  .00000114  00000+0  00000+0 0  9990",
        "tle_line2": "2 37836   0.0595   8.9324 0006025 256.4416 292.4691  1.00272138  5456"
      },
      "geometry": {
        "type": "Point",
        "coordinates": [
          78.43904092681146,
          0.07336299838232983
        ]
      }
    },
    {
      "type": "Feature",
      "properties": {
        "norad_id": 38992,
        "name": "EUTELSAT 21B",
        "group": "eutelsat",
        "lat": 0.08309575685456352,
        "lon": 84.03233813874247,
        "alt_km": 35799.925866274534,
        "timestamp": "2025-12-12T22:42:12.221360+00:00",
        "meta_object_name": "EUTELSAT 21B",
        "meta_object_id": "2012-062B",
        "meta_epoch": "2025-12-12T06:44:04.920000",
        "meta_mean_motion": 1.00272284,
        "meta_eccentricity": 0.00033496,
        "meta_inclination": 0.0669,
        "meta_ra_of_asc_node": 5.0893,
        "meta_arg_of_pericenter": 265.7782,
        "meta_mean_anomaly": 292.979,
        "meta_ephemeris_type": 0,
        "meta_classification_type": "U",
        "meta_norad_cat_id": 38992,
        "meta_element_set_no": 999,
        "meta_rev_at_epoch": 4795,
        "meta_bstar": 0,
        "meta_mean_motion_dot": 1.4e-06,
        "meta_mean_motion_ddot": 0,
        "tle_line1": "1 38992U 12062B   25346.28061250  .00000140  00000+0  00000+0 0  9999",
        "tle_line2": "2 38992   0.0669   5.0893 0003349 265.7782 292.9790  1.00272284 47954"
      },
      "geometry": {
        "type": "Point",
        "coordinates": [
          84.03233813874247,
          0.08309575685456352
        ]
      }
    },
    {
      "type": "Feature",
      "properties": {
        "norad_id": 39020,
        "name": "EUTELSAT 70B",
        "group": "eutelsat",
        "lat": 0.03988003515720424,
        "lon": 132.89631913551958,
        "alt_km": 35793.633913624064,
        "timestamp": "2025-12-12T22:42:12.221372+00:00",
        "meta_object_name": "EUTELSAT 70B",
        "meta_object_id": "2012-069A",
        "meta_epoch": "2025-12-12T03:32:29.164992",
        "meta_mean_motion": 1.00270851,
        "meta_eccentricity": 0.00043101,
        "meta_inclination": 0.0627,
        "meta_ra_of_asc_node": 344.4219,
        "meta_arg_of_pericenter": 262.0301,
        "meta_mean_anomaly": 318.2825,
        "meta_ephemeris_type": 0,
        "meta_classification_type": "U",
        "meta_norad_cat_id": 39020,
        "meta_element_set_no": 999,
        "meta_rev_at_epoch": 4763,
        "meta_bstar": 0,
        "meta_mean_motion_dot": -3.4e-07,
        "meta_mean_motion_ddot": 0,
        "tle_line1": "1 39020U 12069A   25346.14755978 -.00000034  00000+0  00000+0 0  9994",
        "tle_line2": "2 39020   0.0627 344.4219 0004310 262.0301 318.2825  1.00270851 47633"
      },
      "geometry": {
        "type": "Point",
        "coordinates": [
          132.89631913551958,
          0.03988003515720424
        ]
      }
    },
    {
      "type": "Feature",
      "properties": {
        "norad_id": 39122,
        "name": "EUTELSAT 117 WEST A",
        "group": "eutelsat",
        "lat": -0.02402544649231161,
        "lon": -54.35542373913524,
        "alt_km": 35776.81427231536,
        "timestamp": "2025-12-12T22:42:12.221385+00:00",
        "meta_object_name": "EUTELSAT 117 WEST A",
        "meta_object_id": "2013-012A",
        "meta_epoch": "2025-12-12T06:04:38.695296",
        "meta_mean_motion": 1.00271563,
        "meta_eccentricity": 0.00029357,
        "meta_inclination": 0.0151,
        "meta_ra_of_asc_node": 11.6569,
        "meta_arg_of_pericenter": 252.5323,
        "meta_mean_anomaly": 151.3674,
        "meta_ephemeris_type": 0,
        "meta_classification_type": "U",
        "meta_norad_cat_id": 39122,
        "meta_element_set_no": 999,
        "meta_rev_at_epoch": 4655,
        "meta_bstar": 0,
        "meta_mean_motion_dot": -3e-08,
        "meta_mean_motion_ddot": 0,
        "tle_line1": "1 39122U 13012A   25346.25322564 -.00000003  00000+0  00000+0 0  9995",
        "tle_line2": "2 39122   0.0151  11.6569 0002935 252.5323 151.3674  1.00271563 46557"
      },
      "geometry": {
        "type": "Point",
        "coordinates": [
          -54.35542373913524,
          -0.02402544649231161
        ]
      }
    },
    {
      "type": "Feature",
      "properties": {
        "norad_id": 39163,
        "name": "EUTELSAT 7B",
        "group": "eutelsat",
        "lat": 0.07318251309300053,
        "lon": 69.4756564927606,
        "alt_km": 35793.135707336995,
        "timestamp": "2025-12-12T22:42:12.221397+00:00",
        "meta_object_name": "EUTELSAT 7B",
        "meta_object_id": "2013-022A",
        "meta_epoch": "2025-12-12T03:14:30.886080",
        "meta_mean_motion": 1.00272809,
        "meta_eccentricity": 0.00046245,
        "meta_inclination": 0.0731,
        "meta_ra_of_asc_node": 20.1699,
        "meta_arg_of_pericenter": 297.0742,
        "meta_mean_anomaly": 179.4643,
        "meta_ephemeris_type": 0,
        "meta_classification_type": "U",
        "meta_norad_cat_id": 39163,
        "meta_element_set_no": 999,
        "meta_rev_at_epoch": 4608,
        "meta_bstar": 0,
        "meta_mean_motion_dot": 5.7e-07,
        "meta_mean_motion_ddot": 0,
        "tle_line1": "1 39163U 13022A   25346.13507970  .00000057  00000+0  00000+0 0  9992",
        "tle_line2": "2 39163   0.0731  20.1699 0004624 297.0742 179.4643  1.00272809 46080"
      },
      "geometry": {
        "type": "Point",
        "coordinates": [
          69.4756564927606,
          0.07318251309300053
        ]
      }
    },
    {
      "type": "Feature",
      "properties": {
        "norad_id": 39612,
        "name": "EXPRESS-AT1",
        "group": "eutelsat",
        "lat": 0.01567383829258748,
        "lon": 118.41337468317595,
        "alt_km": 35786.702693503874,
        "timestamp": "2025-12-12T22:42:12.221409+00:00",
        "meta_object_name": "EXPRESS-AT1",
        "meta_object_id": "2014-010A",
        "meta_epoch": "2025-12-12T05:11:13.811712",
        "meta_mean_motion": 1.00270477,
        "meta_eccentricity": 1.93e-05,
        "meta_inclination": 0.0169,
        "meta_ra_of_asc_node": 320.8587,
        "meta_arg_of_pericenter": 270.5831,
        "meta_mean_anomaly": 343.5205,
        "meta_ephemeris_type": 0,
        "meta_classification_type": "U",
        "meta_norad_cat_id": 39612,
        "meta_element_set_no": 999,
        "meta_rev_at_epoch": 4294,
        "meta_bstar": 0,
        "meta_mean_motion_dot": 0,
        "meta_mean_motion_ddot": 0,
        "tle_line1": "1 39612U 14010A   25346.21613208  .00000000  00000+0  00000+0 0  9998",
        "tle_line2": "2 39612   0.0169 320.8587 0000193 270.5831 343.5205  1.00270477 42940"
      },
      "geometry": {
        "type": "Point",
        "coordinates": [
          118.41337468317595,
          0.01567383829258748
        ]
      }
    },
    {
      "type": "Feature",
      "properties": {
        "norad_id": 39613,
        "name": "EXPRESS-AT2",
        "group": "eutelsat",
        "lat": -0.030073482369234565,
        "lon": -157.73271278590207,
        "alt_km": 35786.734570366265,
        "timestamp": "2025-12-12T22:42:12.221422+00:00",
        "meta_object_name": "EXPRESS-AT2",
        "meta_object_id": "2014-010B",
        "meta_epoch": "2025-12-12T07:17:54.181248",
        "meta_mean_motion": 1.00269965,
        "meta_eccentricity": 0.00015347,
        "meta_inclination": 0.0172,
        "meta_ra_of_asc_node": 306.1253,
        "meta_arg_of_pericenter": 346.9448,
        "meta_mean_anomaly": 37.518,
        "meta_ephemeris_type": 0,
        "meta_classification_type": "U",
        "meta_norad_cat_id": 39613,
        "meta_element_set_no": 999,
        "meta_rev_at_epoch": 4262,
        "meta_bstar": 0,
        "meta_mean_motion_dot": -2.71e-06,
        "meta_mean_motion_ddot": 0,
        "tle_line1": "1 39613U 14010B   25346.30409932 -.00000271  00000+0  00000+0 0  9997",
        "tle_line2": "2 39613   0.0172 306.1253 0001534 346.9448  37.5180  1.00269965 42621"
      },
      "geometry": {
        "type": "Point",
        "coordinates": [
          -157.73271278590207,
          -0.030073482369234565
        ]
      }
    }
  ]
}